0 TITAN 3C TRANSTAGE DEB
1 01961U 65082GW  13283.57538133  .00002399  00000-0  25252-3 0  6843
2 01961 031.8672 098.1001 0006713 079.8042 280.3362 14.87674159571416
0 TITAN 3C TRANSTAGE DEB
1 01961U 65082GW  13285.65548760  .00002101  00000-0  22032-3 0  6856
2 01961 031.8675 085.2562 0006741 100.7374 259.4032 14.87683651571723
0 TITAN 3C TRANSTAGE DEB
1 01961U 65082GW  13287.66848061  .00002744  00000-0  28948-3 0  6862
2 01961 031.8678 072.8261 0006793 119.5650 240.5675 14.87694574572020
0 TITAN 3C TRANSTAGE DEB
1 01961U 65082GW  13290.48664060  .00003202  00000-0  33856-3 0  6876
2 01961 031.8679 055.4263 0006795 146.7129 213.3947 14.87709232572449
0 TITAN 3C TRANSTAGE DEB
1 01961U 65082GW  13292.49959241  .00003166  00000-0  33463-3 0  6881
2 01961 031.8682 042.9970 0006859 165.7653 194.3188 14.87719595572744
0 TITAN 3C TRANSTAGE DEB
1 01961U 65082GW  13294.51252873  .00003552  00000-0  37596-3 0  6894
2 01961 031.8685 030.5679 0006961 184.3225 175.7363 14.87730776573048
